[{"OBJECT_NAME":"TIANPING 3A-01","OBJECT_ID":"2024-189A","EPOCH":"2026-03-09T23:38:12.967584","MEAN_MOTION":15.01001778,"ECCENTRICITY":0.00023202,"INCLINATION":97.5354,"RA_OF_ASC_NODE":92.2908,"ARG_OF_PERICENTER":68.007,"MEAN_ANOMALY":292.1401,"EPHEMERIS_TYPE":0,"CLASSIFICATION_TYPE":"U","NORAD_CAT_ID":61614,"ELEMENT_SET_NO":999,"REV_AT_EPOCH":7560,"BSTAR":0.00039570452,"MEAN_MOTION_DOT":4.995e-5,"MEAN_MOTION_DDOT":0},{"OBJECT_NAME":"STARLINK-34052","OBJECT_ID":"2025-094L","EPOCH":"2026-03-09T21:55:28.912512","MEAN_MOTION":14.98352171,"ECCENTRICITY":0.00029817,"INCLINATION":70.0019,"RA_OF_ASC_NODE":234.0106,"ARG_OF_PERICENTER":274.332,"MEAN_ANOMALY":85.7499,"EPHEMERIS_TYPE":0,"CLASSIFICATION_TYPE":"U","NORAD_CAT_ID":63874,"ELEMENT_SET_NO":999,"REV_AT_EPOCH":4723,"BSTAR":0.00022153294,"MEAN_MOTION_DOT":2.553e-5,"MEAN_MOTION_DDOT":0}]
